{
  "norad_id": 56802,
  "name": "STARLINK-6070",
  "history": [
    {
      "epoch": "2026-03-28T22:00:01.999584Z",
      "apogee_km": 394.93716454476726,
      "perigee_km": 390.2545257090769,
      "latitude_deg": -44.68607281827456,
      "longitude_deg": 93.11405299050152,
      "height_km": 407.05178051837987,
      "semi_major_axis_km": 6770.732845126921,
      "eccentricity": 0.0003458,
      "inclination_deg": 69.9985,
      "raan_deg": 270.4316,
      "arg_perigee_deg": 292.8765,
      "mean_anomaly_deg": 18.9482,
      "mean_motion_rev_day": 15.58293449
    },
    {
      "epoch": "2026-03-29T04:00:01.999584Z",
      "apogee_km": 393.81331444607986,
      "perigee_km": 388.84452646046793,
      "latitude_deg": -69.69125613266563,
      "longitude_deg": -54.8314459112687,
      "height_km": 414.4356015620741,
      "semi_major_axis_km": 6769.465920453274,
      "eccentricity": 0.000367,
      "inclination_deg": 69.9982,
      "raan_deg": 269.7392,
      "arg_perigee_deg": 294.2741,
      "mean_anomaly_deg": 339.916,
      "mean_motion_rev_day": 15.58730928
    },
    {
      "epoch": "2026-03-30T04:00:01.999584Z",
      "apogee_km": 389.1439152567691,
      "perigee_km": 383.9229426197153,
      "latitude_deg": 48.51585189362353,
      "longitude_deg": 175.2330658149492,
      "height_km": 395.93161915151626,
      "semi_major_axis_km": 6764.670428938242,
      "eccentricity": 0.0003859,
      "inclination_deg": 69.9979,
      "raan_deg": 266.969,
      "arg_perigee_deg": 281.508,
      "mean_anomaly_deg": 205.7823,
      "mean_motion_rev_day": 15.60388704
    },
    {
      "epoch": "2026-03-30T06:00:02.000160Z",
      "apogee_km": 388.74512366618274,
      "perigee_km": 383.76125626202065,
      "latitude_deg": -50.80432027520109,
      "longitude_deg": -164.56055127866577,
      "height_km": 403.89798588368615,
      "semi_major_axis_km": 6764.390189964101,
      "eccentricity": 0.00036839,
      "inclination_deg": 69.9979,
      "raan_deg": 266.7392,
      "arg_perigee_deg": 288.5508,
      "mean_anomaly_deg": 306.768,
      "mean_motion_rev_day": 15.60485672
    },
    {
      "epoch": "2026-03-30T14:00:03.000384Z",
      "apogee_km": 386.9155329889036,
      "perigee_km": 382.08795569486847,
      "latitude_deg": -48.134865511995194,
      "longitude_deg": -155.99681889908413,
      "height_km": 400.3402805899134,
      "semi_major_axis_km": 6762.638744341886,
      "eccentricity": 0.00035693,
      "inclination_deg": 69.998,
      "raan_deg": 265.8125,
      "arg_perigee_deg": 285.6244,
      "mean_anomaly_deg": 22.2205,
      "mean_motion_rev_day": 15.61091933
    },
    {
      "epoch": "2026-03-30T22:00:00.999936Z",
      "apogee_km": 385.37826798266906,
      "perigee_km": 380.7107539383933,
      "latitude_deg": 19.59648509292572,
      "longitude_deg": 113.98550522811253,
      "height_km": 385.12545053947025,
      "semi_major_axis_km": 6761.181510960531,
      "eccentricity": 0.00034517,
      "inclination_deg": 69.9974,
      "raan_deg": 264.8868,
      "arg_perigee_deg": 289.4656,
      "mean_anomaly_deg": 91.3927,
      "mean_motion_rev_day": 15.61596652
    },
    {
      "epoch": "2026-03-31T20:00:01.999008Z",
      "apogee_km": 381.34357533082675,
      "perigee_km": 376.16509381201104,
      "latitude_deg": 41.46251848760319,
      "longitude_deg": -65.52665113664146,
      "height_km": 386.4577019935547,
      "semi_major_axis_km": 6756.891334571419,
      "eccentricity": 0.0003832,
      "inclination_deg": 69.9982,
      "raan_deg": 262.3389,
      "arg_perigee_deg": 284.7233,
      "mean_anomaly_deg": 210.6179,
      "mean_motion_rev_day": 15.63084153
    },
    {
      "epoch": "2026-04-01T20:00:01.999008Z",
      "apogee_km": 376.43436448582906,
      "perigee_km": 371.9697179117875,
      "latitude_deg": 3.6695140479184003,
      "longitude_deg": 130.68275315620937,
      "height_km": 375.69991736725575,
      "semi_major_axis_km": 6752.3390411988075,
      "eccentricity": 0.0003306,
      "inclination_deg": 69.9981,
      "raan_deg": 259.5516,
      "arg_perigee_deg": 289.4319,
      "mean_anomaly_deg": 74.5309,
      "mean_motion_rev_day": 15.6466512
    },
    {
      "epoch": "2026-04-02T20:00:01.999008Z",
      "apogee_km": 372.2217218625383,
      "perigee_km": 366.7359102041037,
      "latitude_deg": -53.36923118477701,
      "longitude_deg": -25.293355797373366,
      "height_km": 387.9069351456065,
      "semi_major_axis_km": 6747.615816033321,
      "eccentricity": 0.0004065,
      "inclination_deg": 69.9986,
      "raan_deg": 256.7584,
      "arg_perigee_deg": 289.9927,
      "mean_anomaly_deg": 308.422,
      "mean_motion_rev_day": 15.66308269
    },
    {
      "epoch": "2026-04-02T22:00:01.999584Z",
      "apogee_km": 371.5529550924457,
      "perigee_km": 366.0191288134356,
      "latitude_deg": -11.225690331009313,
      "longitude_deg": 91.13792401170852,
      "height_km": 371.7811642056876,
      "semi_major_axis_km": 6746.92304195294,
      "eccentricity": 0.0004101,
      "inclination_deg": 69.9978,
      "raan_deg": 256.5245,
      "arg_perigee_deg": 294.3403,
      "mean_anomaly_deg": 53.8573,
      "mean_motion_rev_day": 15.66549518
    },
    {
      "epoch": "2026-04-03T20:00:01.999008Z",
      "apogee_km": 367.6108913591597,
      "perigee_km": 361.77968999418226,
      "latitude_deg": 55.58705343193313,
      "longitude_deg": -90.11184410814452,
      "height_km": 376.24067733832544,
      "semi_major_axis_km": 6742.832290676671,
      "eccentricity": 0.0004324,
      "inclination_deg": 69.9981,
      "raan_deg": 253.955,
      "arg_perigee_deg": 292.6036,
      "mean_anomaly_deg": 186.1582,
      "mean_motion_rev_day": 15.67975329
    },
    {
      "epoch": "2026-04-04T20:00:01.999008Z",
      "apogee_km": 362.74036157292994,
      "perigee_km": 357.1181191019923,
      "latitude_deg": 4.686309265937912,
      "longitude_deg": 119.69229646293931,
      "height_km": 361.06858785328217,
      "semi_major_axis_km": 6738.066240337461,
      "eccentricity": 0.0004172,
      "inclination_deg": 69.9987,
      "raan_deg": 251.148,
      "arg_perigee_deg": 293.1517,
      "mean_anomaly_deg": 71.8777,
      "mean_motion_rev_day": 15.69639242
    },
    {
      "epoch": "2026-04-05T14:00:03.000384Z",
      "apogee_km": 358.9357781705776,
      "perigee_km": 353.3548090625645,
      "latitude_deg": -66.06729043489995,
      "longitude_deg": 150.49545041179448,
      "height_km": 377.82928507279837,
      "semi_major_axis_km": 6734.28229361657,
      "eccentricity": 0.00041437,
      "inclination_deg": 69.9985,
      "raan_deg": 249.0374,
      "arg_perigee_deg": 290.5178,
      "mean_anomaly_deg": 353.1691,
      "mean_motion_rev_day": 15.70962382
    },
    {
      "epoch": "2026-04-05T20:00:03.000384Z",
      "apogee_km": 358.0949058180677,
      "perigee_km": 352.4065398698094,
      "latitude_deg": -66.56891704752388,
      "longitude_deg": -9.173403939636929,
      "height_km": 377.62605446708744,
      "semi_major_axis_km": 6733.387722843939,
      "eccentricity": 0.0004224,
      "inclination_deg": 69.9982,
      "raan_deg": 248.334,
      "arg_perigee_deg": 295.8728,
      "mean_anomaly_deg": 321.4286,
      "mean_motion_rev_day": 15.7127546
    },
    {
      "epoch": "2026-04-06T04:00:05.000256Z",
      "apogee_km": 356.40027192074285,
      "perigee_km": 350.9780552190341,
      "latitude_deg": -16.26969408810192,
      "longitude_deg": -13.15372754775266,
      "height_km": 357.88920744191404,
      "semi_major_axis_km": 6731.826163569888,
      "eccentricity": 0.00040273,
      "inclination_deg": 69.9984,
      "raan_deg": 247.3928,
      "arg_perigee_deg": 294.4206,
      "mean_anomaly_deg": 48.4197,
      "mean_motion_rev_day": 15.71822217
    },
    {
      "epoch": "2026-04-07T14:00:01.999872Z",
      "apogee_km": 349.36929463463184,
      "perigee_km": 343.7867052302872,
      "latitude_deg": 68.97234085006025,
      "longitude_deg": -92.15511621728612,
      "height_km": 360.34723658303255,
      "semi_major_axis_km": 6724.714999932459,
      "eccentricity": 0.00041508,
      "inclination_deg": 69.9983,
      "raan_deg": 243.3923,
      "arg_perigee_deg": 290.6546,
      "mean_anomaly_deg": 152.3569,
      "mean_motion_rev_day": 15.74316101
    },
    {
      "epoch": "2026-04-07T20:00:00.999360Z",
      "apogee_km": 348.38961571628715,
      "perigee_km": 342.84117523953864,
      "latitude_deg": 54.27656604190645,
      "longitude_deg": 136.79392777155607,
      "height_km": 355.5521497183828,
      "semi_major_axis_km": 6723.752395477913,
      "eccentricity": 0.0004126,
      "inclination_deg": 69.9979,
      "raan_deg": 242.6843,
      "arg_perigee_deg": 294.8468,
      "mean_anomaly_deg": 124.7288,
      "mean_motion_rev_day": 15.74654193
    },
    {
      "epoch": "2026-04-08T16:00:01.999584Z",
      "apogee_km": 344.26321828348955,
      "perigee_km": 338.851445256455,
      "latitude_deg": 65.61238239654722,
      "longitude_deg": -69.5905205654085,
      "height_km": 354.9491141419402,
      "semi_major_axis_km": 6719.6943317699715,
      "eccentricity": 0.00040268,
      "inclination_deg": 69.998,
      "raan_deg": 240.3221,
      "arg_perigee_deg": 291.6513,
      "mean_anomaly_deg": 172.7895,
      "mean_motion_rev_day": 15.76080823
    },
    {
      "epoch": "2026-04-09T20:00:01.999008Z",
      "apogee_km": 338.8684328231175,
      "perigee_km": 333.0258368089999,
      "latitude_deg": -59.49635887080151,
      "longitude_deg": -43.16781869705885,
      "height_km": 356.47826830976584,
      "semi_major_axis_km": 6714.084134816058,
      "eccentricity": 0.0004351,
      "inclination_deg": 69.9972,
      "raan_deg": 237.0055,
      "arg_perigee_deg": 297.3487,
      "mean_anomaly_deg": 308.911,
      "mean_motion_rev_day": 15.78056663
    }
  ]
}